NORAD_CAT_ID,OBJECT_NAME,OBJECT_TYPE,EPOCH,MEAN_MOTION,ECCENTRICITY,INCLINATION,RA_OF_ASC_NODE,ARG_OF_PERICENTER,MEAN_ANOMALY,BSTAR,MEAN_MOTION_DOT,MEAN_MOTION_DDOT,TLE_LINE0,TLE_LINE1,TLE_LINE2,SEMIMAJOR_AXIS,PERIOD,APOGEE,PERIGEE,DECAYED
53022.0,STARLINK-4216,PAYLOAD,2022-11-26 23:58:25,15.08845194,0.0002188,53.2181,65.2509,33.841,326.2721,7.9305e-05,9.74e-06,0.0,0 STARLINK-4216,1 53022U 22076AN  22330.99890877  .00000974  00000-0  79305-4 0  9994,2 53022  53.2181  65.2509 0002188  33.8410 326.2721 15.08845194 22494,6917.865,95.437,541.243,538.216,0.0
53022.0,STARLINK-4216,PAYLOAD,2022-11-27 12:41:31,15.08842665,0.0002382,53.2173,62.87300000000001,36.3377,323.7776,-1.2869000000000003e-05,-4.93e-06,0.0,0 STARLINK-4216,1 53022U 22076AN  22331.52883188 -.00000493  00000-0 -12869-4 0  9991,2 53022  53.2173  62.8730 0002382  36.3377 323.7776 15.08842665 22100,6917.871999999999,95.437,541.385,538.089,0.0
53022.0,STARLINK-4216,PAYLOAD,2022-11-28 06:10:46,15.08836265,0.0002347,53.2164,59.6022,27.8433,332.2684,-8.996799999999999e-05,-1.7199999999999998e-05,0.0,0 STARLINK-4216,1 53022U 22076AN  22332.25747915 -.00001720  00000-0 -89968-4 0  9997,2 53022  53.2164  59.6022 0002347  27.8433 332.2684 15.08836265 22682,6917.892,95.438,541.38,538.133,0.0
53022.0,STARLINK-4216,PAYLOAD,2022-11-28 12:32:19,15.08831352,0.0002352,53.2166,58.4129,27.5864,332.5253,-0.00012395,-2.26e-05,0.0,0 STARLINK-4216,1 53022U 22076AN  22332.52244407 -.00002260  00000-0 -12395-3 0  9994,2 53022  53.2166  58.4129 0002352  27.5864 332.5253 15.08831352 22250,6917.906999999997,95.438,541.399,538.145,0.0
53022.0,STARLINK-4216,PAYLOAD,2022-11-29 12:23:05,15.08840025,0.0002415,53.2182,53.953,32.0321,328.0818,8.404799999999999e-05,1.05e-05,0.0,0 STARLINK-4216,1 53022U 22076AN  22333.51603518  .00001050  00000-0  84048-4 0  9995,2 53022  53.2182  53.9530 0002415  32.0321 328.0818 15.08840025 22875,6917.88,95.438,541.4159999999998,538.075,0.0
53022.0,STARLINK-4216,PAYLOAD,2022-11-29 13:58:28,15.08839192,0.0002444,53.2181,53.6557,30.0539,330.0593,7.4016e-05,8.900000000000001e-06,0.0,0 STARLINK-4216,1 53022U 22076AN  22333.58227621  .00000890  00000-0  74016-4 0  9994,2 53022  53.2181  53.6557 0002444  30.0539 330.0593 15.08839192 22417,6917.8830000000025,95.438,541.439,538.057,0.0
53022.0,STARLINK-4216,PAYLOAD,2022-11-30 04:16:57,15.08841772,0.0002536,53.2189,50.9805,29.7694,330.3442,-6.8205e-05,-1.374e-05,0.0,0 STARLINK-4216,1 53022U 22076AN  22334.17844248 -.00001374  00000-0 -68205-4 0  9993,2 53022  53.2189  50.9805 0002536  29.7694 330.3442 15.08841772 22974,6917.875,95.437,541.494,537.986,0.0
53022.0,STARLINK-4216,PAYLOAD,2022-11-30 05:52:20,15.08830574,0.0002471,53.2188,50.6832,30.1276,329.9858,5.9275e-05,6.55e-06,0.0,0 STARLINK-4216,1 53022U 22076AN  22334.24468570  .00000655  00000-0  59275-4 0  9997,2 53022  53.2188  50.6832 0002471  30.1276 329.9858 15.08830574 22984,6917.909000000002,95.438,541.484,538.065,0.0
53022.0,STARLINK-4216,PAYLOAD,2022-11-30 09:03:07,15.08824147,0.0002221,53.2194,50.0848,28.5562,331.5551,3.1339e-05,2.1e-06,0.0,0 STARLINK-4216,1 53022U 22076AN  22334.37717217  .00000210  00000-0  31339-4 0  9994,2 53022  53.2194  50.0848 0002221  28.5562 331.5551 15.08824147 23006,6917.929,95.439,541.33,538.257,0.0
53022.0,STARLINK-4216,PAYLOAD,2022-11-30 10:38:31,15.08813291,0.0002444,53.2189,49.7908,28.5372,331.5754,-6.5961e-05,-1.337e-05,0.0,0 STARLINK-4216,1 53022U 22076AN  22334.44342268 -.00001337  00000-0 -65961-4 0  9993,2 53022  53.2189  49.7908 0002444  28.5372 331.5754 15.08813291 22549,6917.962,95.439,541.518,538.136,0.0
53022.0,STARLINK-4216,PAYLOAD,2022-12-01 12:04:40,15.08842481,0.0002446,53.2192,45.0336,24.6887,335.4222,5.868e-05,6.46e-06,0.0,0 STARLINK-4216,1 53022U 22076AN  22335.50325193  .00000646  00000-0  58680-4 0  9999,2 53022  53.2192  45.0336 0002446  24.6887 335.4222 15.08842481 22701,6917.873000000001,95.437,541.43,538.0459999999998,0.0
53022.0,STARLINK-4216,PAYLOAD,2022-12-02 05:33:55,15.0883478,0.0002412,53.2201,41.7621,37.0993,323.0166,0.00021906,3.199e-05,0.0,0 STARLINK-4216,1 53022U 22076AN  22336.23188955  .00003199  00000-0  21906-3 0  9999,2 53022  53.2201  41.7621 0002412  37.0993 323.0166 15.08834780 22816,6917.896,95.438,541.43,538.0930000000002,0.0
53022.0,STARLINK-4216,PAYLOAD,2022-12-02 21:27:47,15.08827255,0.0002175,53.2192,38.7877,40.8426,319.2729,0.00017051,2.426e-05,0.0,0 STARLINK-4216,1 53022U 22076AN  22336.89429913  .00002426  00000-0  17051-3 0  9991,2 53022  53.2192  38.7877 0002175  40.8426 319.2729 15.08827255 23387,6917.919,95.438,541.289,538.28,0.0
53022.0,STARLINK-4216,PAYLOAD,2022-12-03 13:21:38,15.08840922,0.0002689,53.2204,35.8152,25.9519,334.1608,-6.3424e-05,-1.298e-05,0.0,0 STARLINK-4216,1 53022U 22076AN  22337.55669816 -.00001298  00000-0 -63424-4 0  9997,2 53022  53.2204  35.8152 0002689  25.9519 334.1608 15.08840922 23010,6917.878000000002,95.437,541.6030000000002,537.882,0.0
53022.0,STARLINK-4216,PAYLOAD,2022-12-03 16:32:25,15.08839273,0.0002604,53.2204,35.2205,33.0917,327.0238,-4.7427e-05,-1.043e-05,0.0,0 STARLINK-4216,1 53022U 22076AN  22337.68917854 -.00001043  00000-0 -47427-4 0  9992,2 53022  53.2204  35.2205 0002604  33.0917 327.0238 15.08839273 23031,6917.8830000000025,95.438,541.549,537.946,0.0
53022.0,STARLINK-4216,PAYLOAD,2022-12-04 03:40:06,15.08844626,0.0002616,53.219,33.1378,28.0355,332.0777,3.880800000000001e-05,3.29e-06,0.0,0 STARLINK-4216,1 53022U 22076AN  22338.15284928  .00000329  00000-0  38808-4 0  9991,2 53022  53.2190  33.1378 0002616  28.0355 332.0777 15.08844626 23577,6917.866,95.437,541.5409999999998,537.922,0.0
53022.0,STARLINK-4216,PAYLOAD,2022-12-04 13:12:24,15.08846731,0.000304,53.2192,31.3558,17.8444,342.2654,7.1929e-05,8.57e-06,0.0,0 STARLINK-4216,1 53022U 22076AN  22338.55028598  .00000857  00000-0  71929-4 0  9991,2 53022  53.2192  31.3558 0003040  17.8444 342.2654 15.08846731 23167,6917.86,95.437,541.828,537.622,0.0
53022.0,STARLINK-4216,PAYLOAD,2022-12-05 09:52:25,15.08844207,0.0002747,53.2187,27.4882,30.161,329.954,4.7242e-05,4.64e-06,0.0,0 STARLINK-4216,1 53022U 22076AN  22339.41140487  .00000464  00000-0  47242-4 0  9994,2 53022  53.2187  27.4882 0002747  30.1610 329.9540 15.08844207 23761,6917.868,95.437,541.633,537.832,0.0
53022.0,STARLINK-4216,PAYLOAD,2022-12-05 14:38:34,15.08843256,0.0002748,53.2188,26.5956,30.86,329.2553,8.2108e-05,1.019e-05,0.0,0 STARLINK-4216,1 53022U 22076AN  22339.61012391  .00001019  00000-0  82108-4 0  9995,2 53022  53.2188  26.5956 0002748  30.8600 329.2553 15.08843256 23323,6917.87,95.437,541.636,537.8340000000002,0.0
53022.0,STARLINK-4216,PAYLOAD,2022-12-06 12:53:57,15.08850926,0.0002642,53.2193,22.4332,30.6699,329.4447,-9.3248e-06,-4.37e-06,0.0,0 STARLINK-4216,1 53022U 22076AN  22340.53747591 -.00000437  00000-0 -93248-5 0  9998,2 53022  53.2193  22.4332 0002642  30.6699 329.4447 15.08850926 23934,6917.847,95.437,541.54,537.884,0.0
53022.0,STARLINK-4216,PAYLOAD,2022-12-06 14:29:22,15.08835641,0.0002545,53.2193,22.1344,32.5818,327.5331,-0.00014763,-2.637e-05,0.0,0 STARLINK-4216,1 53022U 22076AN  22340.60373008 -.00002637  00000-0 -14763-3 0  9991,2 53022  53.2193  22.1344 0002545  32.5818 327.5331 15.08835641 23477,6917.894,95.438,541.519,537.998,0.0
53022.0,STARLINK-4216,PAYLOAD,2022-12-07 19:06:19,15.0883255,0.0002697,53.2187,16.7836,29.5172,330.5972,-9.5218e-05,-1.803e-05,0.0,0 STARLINK-4216,1 53022U 22076AN  22341.79605592 -.00001803  00000-0 -95218-4 0  9997,2 53022  53.2187  16.7836 0002697  29.5172 330.5972 15.08832550 24126,6917.903,95.438,541.634,537.9019999999998,0.0
53022.0,STARLINK-4216,PAYLOAD,2022-12-08 03:03:14,15.08839379,0.0002784,53.2182,15.2972,28.9544,331.1602,-2.8025e-05,-7.35e-06,0.0,0 STARLINK-4216,1 53022U 22076AN  22342.12725010 -.00000735  00000-0 -28025-4 0  9998,2 53022  53.2182  15.2972 0002784  28.9544 331.1602 15.08839379 24177,6917.882,95.438,541.673,537.821,0.0
53022.0,STARLINK-4216,PAYLOAD,2022-12-08 09:24:46,15.08843261,0.0002717,53.2194,14.1094,31.3318,328.7836,9.0515e-05,1.153e-05,0.0,0 STARLINK-4216,1 53022U 22076AN  22342.39220353  .00001153  00000-0  90515-4 0  9993,2 53022  53.2194  14.1094 0002717  31.3318 328.7836 15.08843261 23744,6917.87,95.437,541.615,537.856,0.0
53022.0,STARLINK-4216,PAYLOAD,2022-12-08 18:57:02,15.08870206,0.0002092,53.219,12.3252,9.3251,350.7779,0.00031919,4.8e-05,0.0,0 STARLINK-4216,1 53022U 22076AN  22342.78961445  .00004800  00000-0  31919-3 0  9994,2 53022  53.2190  12.3252 0002092   9.3251 350.7779 15.08870206 24272,6917.788000000001,95.436,541.1,538.206,0.0
53022.0,STARLINK-4216,PAYLOAD,2022-12-09 10:50:54,15.08878248,0.0002636,53.2193,9.353,19.6664,340.4429,0.00010368,1.364e-05,0.0,0 STARLINK-4216,1 53022U 22076AN  22343.45201875  .00001364  00000-0  10368-3 0  9990,2 53022  53.2193   9.3530 0002636  19.6664 340.4429 15.08878248 23907,6917.763000000001,95.435,541.452,537.805,0.0
53022.0,STARLINK-4216,PAYLOAD,2022-12-09 18:47:51,15.08830675,0.0003032,53.2188,7.8659,302.8366,57.2334,0.00038537,5.849e-05,0.0,0 STARLINK-4216,1 53022U 22076AN  22343.78323205  .00005849  00000-0  38537-3 0  9998,2 53022  53.2188   7.8659 0003032 302.8366  57.2334 15.08830675 24421,6917.909000000002,95.438,541.871,537.6759999999998,0.0
53022.0,STARLINK-4216,PAYLOAD,2022-12-10 05:55:30,15.0892916,0.0002638,53.2191,5.7836,333.5963,26.4895,-0.00024352,-4.172e-05,0.0,0 STARLINK-4216,1 53022U 22076AN  22344.24687719 -.00004172  00000-0 -24352-3 0  9993,2 53022  53.2191   5.7836 0002638 333.5963  26.4895 15.08929160 24499,6917.608,95.432,541.298,537.648,0.0
53022.0,STARLINK-4216,PAYLOAD,2022-12-10 13:52:32,15.08830529,0.0002779,53.2183,4.2949,27.5097,332.6042,-0.00010714,-1.993e-05,0.0,0 STARLINK-4216,1 53022U 22076AN  22344.57814830 -.00001993  00000-0 -10714-3 0  9990,2 53022  53.2183   4.2949 0002779  27.5097 332.6042 15.08830529 24545,6917.909000000002,95.438,541.697,537.852,0.0
